{
  "type": "FeatureCollection",
  "features": [
    {
      "type": "Feature",
      "properties": {
        "norad_id": 37470,
        "name": "FENGYUN 1C DEB",
        "group": "fengyun-1c-debris",
        "lat": -63.02535319518192,
        "lon": -78.42194272682973,
        "alt_km": 574.9701750670756,
        "timestamp": "2025-12-02T17:49:12.317114+00:00",
        "meta_object_name": "FENGYUN 1C DEB",
        "meta_object_id": "1999-025EJQ",
        "meta_epoch": "2025-12-02T08:43:26.114016",
        "meta_mean_motion": 14.99042865,
        "meta_eccentricity": 0.000536,
        "meta_inclination": 98.6674,
        "meta_ra_of_asc_node": 118.5972,
        "meta_arg_of_pericenter": 185.6749,
        "meta_mean_anomaly": 174.4411,
        "meta_ephemeris_type": 0,
        "meta_classification_type": "U",
        "meta_norad_cat_id": 37470,
        "meta_element_set_no": 999,
        "meta_rev_at_epoch": 65306,
        "meta_bstar": 0.0063565,
        "meta_mean_motion_dot": 0.00077884,
        "meta_mean_motion_ddot": 0,
        "tle_line1": "1 37470U 99025EJQ 25336.36349669  .00077884  00000+0  63565-2 0  9991",
        "tle_line2": "2 37470  98.6674 118.5972 0005360 185.6749 174.4411 14.99042865653060"
      },
      "geometry": {
        "type": "Point",
        "coordinates": [
          -78.42194272682973,
          -63.02535319518192
        ]
      }
    },
    {
      "type": "Feature",
      "properties": {
        "norad_id": 37474,
        "name": "FENGYUN 1C DEB",
        "group": "fengyun-1c-debris",
        "lat": 16.940068972356695,
        "lon": 177.75590881286107,
        "alt_km": 725.6163784720065,
        "timestamp": "2025-12-02T17:49:12.317125+00:00",
        "meta_object_name": "FENGYUN 1C DEB",
        "meta_object_id": "1999-025EJU",
        "meta_epoch": "2025-11-29T19:43:16.370400",
        "meta_mean_motion": 14.74736666,
        "meta_eccentricity": 0.01322899,
        "meta_inclination": 99.1669,
        "meta_ra_of_asc_node": 177.2713,
        "meta_arg_of_pericenter": 175.3054,
        "meta_mean_anomaly": 184.9427,
        "meta_ephemeris_type": 0,
        "meta_classification_type": "U",
        "meta_norad_cat_id": 37474,
        "meta_element_set_no": 999,
        "meta_rev_at_epoch": 62185,
        "meta_bstar": 0.0011640682,
        "meta_mean_motion_dot": 8.905e-05,
        "meta_mean_motion_ddot": 0,
        "tle_line1": "1 37474U 99025EJU 25333.82171725  .00008905  00000+0  11641-2 0  9995",
        "tle_line2": "2 37474  99.1669 177.2713 0132289 175.3054 184.9427 14.74736666621852"
      },
      "geometry": {
        "type": "Point",
        "coordinates": [
          177.75590881286107,
          16.940068972356695
        ]
      }
    },
    {
      "type": "Feature",
      "properties": {
        "norad_id": 37477,
        "name": "FENGYUN 1C DEB",
        "group": "fengyun-1c-debris",
        "lat": 64.24548785884576,
        "lon": -36.59927583534095,
        "alt_km": 810.6012618843233,
        "timestamp": "2025-12-02T17:49:12.317135+00:00",
        "meta_object_name": "FENGYUN 1C DEB",
        "meta_object_id": "1999-025EJX",
        "meta_epoch": "2025-11-30T11:23:01.539168",
        "meta_mean_motion": 14.19666183,
        "meta_eccentricity": 0.00370674,
        "meta_inclination": 98.6046,
        "meta_ra_of_asc_node": 339.4881,
        "meta_arg_of_pericenter": 141.4491,
        "meta_mean_anomaly": 218.9343,
        "meta_ephemeris_type": 0,
        "meta_classification_type": "U",
        "meta_norad_cat_id": 37477,
        "meta_element_set_no": 999,
        "meta_rev_at_epoch": 81740,
        "meta_bstar": 0.00075322109,
        "meta_mean_motion_dot": 1.561e-05,
        "meta_mean_motion_ddot": 0,
        "tle_line1": "1 37477U 99025EJX 25334.47432337  .00001561  00000+0  75322-3 0  9997",
        "tle_line2": "2 37477  98.6046 339.4881 0037067 141.4491 218.9343 14.19666183817401"
      },
      "geometry": {
        "type": "Point",
        "coordinates": [
          -36.59927583534095,
          64.24548785884576
        ]
      }
    },
    {
      "type": "Feature",
      "properties": {
        "norad_id": 37478,
        "name": "FENGYUN 1C DEB",
        "group": "fengyun-1c-debris",
        "lat": 65.15715626267827,
        "lon": -61.311091264372635,
        "alt_km": 1184.8916914413494,
        "timestamp": "2025-12-02T17:49:12.317145+00:00",
        "meta_object_name": "FENGYUN 1C DEB",
        "meta_object_id": "1999-025EJY",
        "meta_epoch": "2025-12-01T04:38:30.240384",
        "meta_mean_motion": 13.02859978,
        "meta_eccentricity": 0.0548927,
        "meta_inclination": 99.6439,
        "meta_ra_of_asc_node": 318.8464,
        "meta_arg_of_pericenter": 345.6465,
        "meta_mean_anomaly": 12.9573,
        "meta_ephemeris_type": 0,
        "meta_classification_type": "U",
        "meta_norad_cat_id": 37478,
        "meta_element_set_no": 999,
        "meta_rev_at_epoch": 56411,
        "meta_bstar": 0.0056896,
        "meta_mean_motion_dot": 3.616e-05,
        "meta_mean_motion_ddot": 0,
        "tle_line1": "1 37478U 99025EJY 25335.19340556  .00003616  00000+0  56896-2 0  9996",
        "tle_line2": "2 37478  99.6439 318.8464 0548927 345.6465  12.9573 13.02859978564119"
      },
      "geometry": {
        "type": "Point",
        "coordinates": [
          -61.311091264372635,
          65.15715626267827
        ]
      }
    },
    {
      "type": "Feature",
      "properties": {
        "norad_id": 37589,
        "name": "FENGYUN 1C DEB",
        "group": "fengyun-1c-debris",
        "lat": 11.146281646360144,
        "lon": 61.0865077518988,
        "alt_km": 915.2418872876433,
        "timestamp": "2025-12-02T17:49:12.317155+00:00",
        "meta_object_name": "FENGYUN 1C DEB",
        "meta_object_id": "1999-025EKH",
        "meta_epoch": "2025-11-26T10:55:17.463072",
        "meta_mean_motion": 14.0788956,
        "meta_eccentricity": 0.01217098,
        "meta_inclination": 99.0712,
        "meta_ra_of_asc_node": 232.9659,
        "meta_arg_of_pericenter": 309.4482,
        "meta_mean_anomaly": 49.5966,
        "meta_ephemeris_type": 0,
        "meta_classification_type": "U",
        "meta_norad_cat_id": 37589,
        "meta_element_set_no": 999,
        "meta_rev_at_epoch": 82355,
        "meta_bstar": 0.0039128941,
        "meta_mean_motion_dot": 7.065e-05,
        "meta_mean_motion_ddot": 0,
        "tle_line1": "1 37589U 99025EKH 25330.45506323  .00007065  00000+0  39129-2 0  9991",
        "tle_line2": "2 37589  99.0712 232.9659 0121709 309.4482  49.5966 14.07889560823558"
      },
      "geometry": {
        "type": "Point",
        "coordinates": [
          61.0865077518988,
          11.146281646360144
        ]
      }
    },
    {
      "type": "Feature",
      "properties": {
        "norad_id": 37594,
        "name": "FENGYUN 1C DEB",
        "group": "fengyun-1c-debris",
        "lat": -75.99432500880056,
        "lon": 148.29538023638233,
        "alt_km": 815.2500126035875,
        "timestamp": "2025-12-02T17:49:12.317165+00:00",
        "meta_object_name": "FENGYUN 1C DEB",
        "meta_object_id": "1999-025EKN",
        "meta_epoch": "2025-12-01T20:10:06.711744",
        "meta_mean_motion": 14.11100402,
        "meta_eccentricity": 0.00849769,
        "meta_inclination": 98.7356,
        "meta_ra_of_asc_node": 5.4727,
        "meta_arg_of_pericenter": 301.0362,
        "meta_mean_anomaly": 58.2487,
        "meta_ephemeris_type": 0,
        "meta_classification_type": "U",
        "meta_norad_cat_id": 37594,
        "meta_element_set_no": 999,
        "meta_rev_at_epoch": 77608,
        "meta_bstar": 0.00031068206,
        "meta_mean_motion_dot": 5.35e-06,
        "meta_mean_motion_ddot": 0,
        "tle_line1": "1 37594U 99025EKN 25335.84035546  .00000535  00000+0  31068-3 0  9999",
        "tle_line2": "2 37594  98.7356   5.4727 0084976 301.0362  58.2487 14.11100402776088"
      },
      "geometry": {
        "type": "Point",
        "coordinates": [
          148.29538023638233,
          -75.99432500880056
        ]
      }
    },
    {
      "type": "Feature",
      "properties": {
        "norad_id": 37600,
        "name": "FENGYUN 1C DEB",
        "group": "fengyun-1c-debris",
        "lat": 26.554693557959084,
        "lon": 129.42658766368137,
        "alt_km": 779.1634058635182,
        "timestamp": "2025-12-02T17:49:12.317175+00:00",
        "meta_object_name": "FENGYUN 1C DEB",
        "meta_object_id": "1999-025EKU",
        "meta_epoch": "2025-12-02T03:47:53.898144",
        "meta_mean_motion": 13.82391905,
        "meta_eccentricity": 0.03579786,
        "meta_inclination": 98.9356,
        "meta_ra_of_asc_node": 133.381,
        "meta_arg_of_pericenter": 78.289,
        "meta_mean_anomaly": 285.8195,
        "meta_ephemeris_type": 0,
        "meta_classification_type": "U",
        "meta_norad_cat_id": 37600,
        "meta_element_set_no": 999,
        "meta_rev_at_epoch": 88341,
        "meta_bstar": 0.0036460247,
        "meta_mean_motion_dot": 6.409e-05,
        "meta_mean_motion_ddot": 0,
        "tle_line1": "1 37600U 99025EKU 25336.15826271  .00006409  00000+0  36460-2 0  9991",
        "tle_line2": "2 37600  98.9356 133.3810 0357978  78.2890 285.8195 13.82391905883413"
      },
      "geometry": {
        "type": "Point",
        "coordinates": [
          129.42658766368137,
          26.554693557959084
        ]
      }
    }
  ]
}